OBJECT_NAME,OBJECT_ID,EPOCH,MEAN_MOTION,ECCENTRICITY,INCLINATION,RA_OF_ASC_NODE,ARG_OF_PERICENTER,MEAN_ANOMALY,EPHEMERIS_TYPE,CLASSIFICATION_TYPE,NORAD_CAT_ID,ELEMENT_SET_NO,REV_AT_EPOCH,BSTAR,MEAN_MOTION_DOT,MEAN_MOTION_DDOT
OCEANSAT-2,2009-051A,2026-06-08T20:03:25.517664,13.99664177,.0014663,98.2323,147.5202,261.5866,98.3638,0,U,35931,999,87816,.90611E-4,.95E-6,0
WORLDVIEW-2 (WV-2),2009-055A,2026-06-08T19:31:23.356128,14.37897007,.0003282,98.4736,233.3783,238.5546,121.5320,0,U,35946,999,87444,.50783E-4,.11E-5,0
SMOS,2009-059A,2026-06-08T18:43:59.323872,14.39768187,.0001341,98.4427,347.2388,90.1279,270.0063,0,U,36036,999,87224,.97724E-4,.263E-5,0
YAOGAN-7,2009-069A,2026-06-08T10:09:27.251712,14.78001090,.0025957,98.0083,45.3441,68.7505,291.6475,0,U,36110,999,88833,.79015E-4,.52E-5,0
TANDEM-X,2010-030A,2026-06-08T11:55:50.532960,15.19149084,.0001832,97.4452,167.3280,92.3197,267.8248,0,U,36605,999,88532,.53316E-4,.1053E-4,0
CARTOSAT-2B,2010-035A,2026-06-08T19:31:05.301120,14.78649618,.001047,97.9954,210.4162,212.5254,147.5313,0,U,36795,999,85861,.47241E-4,.294E-5,0
YAOGAN-10,2010-038A,2026-06-08T20:59:32.154144,14.85322791,.0001672,97.8983,183.3455,89.2265,34.0397,0,U,36834,999,85597,.12446E-3,.1016E-4,0
COSMO-SKYMED 4,2010-060A,2026-06-08T09:32:08.023776,14.82162251,.0001414,97.8890,343.1246,83.8256,276.3118,0,U,37216,999,84326,.70656E-4,.51E-5,0
RESOURCESAT-2,2011-015A,2026-06-08T18:48:45.101376,14.21604716,.0010135,98.7644,227.2834,282.6676,77.3368,0,U,37387,999,78498,.523E-4,.7E-6,0
HAIYANG-2A,2011-043A,2026-06-08T21:14:57.380640,13.74549957,.0006286,99.3399,162.7445,107.6905,252.4931,0,U,37781,999,74551,.8883E-4,.41E-6,0
RASAT,2011-044D,2026-06-08T20:59:52.994688,14.68159117,.0019573,98.0567,251.3986,216.0339,269.6713,0,U,37791,999,79196,.10202E-3,.539E-5,0
PLEIADES 1A,2011-076F,2026-06-08T20:08:29.690592,14.58566219,.0001507,98.1971,235.0537,97.0979,39.7787,0,U,38012,999,77077,.89501E-4,.37E-5,0
ZIYUAN 1-02C (ZY 1-02C),2011-079A,2026-06-08T21:03:53.819136,14.38208223,.0006059,98.4068,227.3598,344.7035,136.7502,0,U,38038,999,75801,.15079E-3,.415E-5,0
ARIRANG-3 (KOMPSAT-3),2012-025B,2026-06-08T19:42:15.983712,14.62199214,.0006322,98.1167,117.4256,130.8574,229.3176,0,U,38338,999,75012,.1033E-3,.474E-5,0
EXACTVIEW-1 (ADS-1B),2012-039C,2026-06-08T19:33:28.679328,14.24982217,.001071,98.9767,277.0164,190.2526,169.8435,0,U,38709,999,72151,.71459E-4,.121E-5,0
SPOT 6,2012-047A,2026-06-08T19:52:59.168640,14.58558036,.0001437,98.2115,227.2350,92.2001,267.9363,0,U,38755,999,73183,.65891E-4,.26E-5,0
PLEIADES 1B,2012-068A,2026-06-08T20:20:12.310080,14.58555213,.0001585,98.1941,235.0138,93.8089,266.3292,0,U,39019,999,71963,.55582E-4,.213E-5,0
GOKTURK 2,2012-073A,2026-06-08T19:22:55.215264,14.75535316,.0001887,97.6828,357.6591,60.3975,299.7423,0,U,39030,999,72327,.88586E-4,.556E-5,0
LANDSAT 8,2013-008A,2026-06-08T18:49:24.847104,14.57113352,.0001463,98.2302,230.0191,95.9956,264.1409,0,U,39084,999,69667,.83114E-4,.329E-5,0
SARAL,2013-009A,2026-06-08T19:13:16.565088,14.32853884,.0001185,98.5558,346.4746,350.2461,9.8700,0,U,39086,999,69440,.46836E-4,.84E-6,0
GAOFEN-1,2013-018A,2026-06-08T01:11:55.432032,14.76526544,.00158883,97.9091,231.3033,298.8203,61.1412,0,U,39150,999,70689,.35694952E-4,.198E-5,0
VNREDSAT 1,2013-021B,2026-06-08T19:46:19.545312,14.64847903,.0001667,97.9082,213.5610,89.0796,271.0598,0,U,39160,999,69906,.90762E-4,.439E-5,0
ARIRANG-5 (KOMPSAT-5),2013-042A,2026-06-08T18:51:39.569760,15.04559258,.0004228,97.6218,346.6050,140.2160,219.9377,0,U,39227,999,70259,.14428E-3,.1962E-4,0
SKYSAT-A,2013-066C,2026-06-08T09:28:36.619392,15.12928257,.0020908,97.3819,209.0723,349.3265,10.7520,0,U,39418,999,68715,.16829E-3,.2915E-4,0
DUBAISAT-2,2013-066D,2026-06-08T20:30:30.323232,15.10120345,.0012733,97.4567,150.2174,66.0013,294.2548,0,U,39419,999,68513,.27836E-3,.4483E-4,0
GPM-CORE,2014-009C,2026-06-08T19:01:46.496064,15.45451672,.0012083,64.9730,336.2463,270.2193,89.7563,0,U,39574,999,69651,.15357E-3,.7158E-4,0
SENTINEL-1A,2014-016A,2026-06-08T20:45:05.097312,14.59200259,.000144,98.1784,167.5190,82.5073,277.6290,0,U,39634,999,64880,.33184E-4,.111E-5,0
KAZEOSAT 1,2014-024A,2026-06-08T20:01:23.493216,14.42076745,.0001476,98.3200,232.4892,75.3443,284.7911,0,U,39731,999,63735,.62265E-4,.162E-5,0
ALOS-2,2014-029A,2026-06-08T13:11:42.167040,14.79472066,.0001672,97.9210,256.8376,90.6305,269.5098,0,U,39766,999,65030,.20114E-3,.1451E-4,0
KAZEOSAT 2,2014-033A,2026-06-08T19:26:21.744096,14.85460581,.0008738,97.5416,359.8644,358.0790,2.0391,0,U,40010,999,64771,.5348E-4,.411E-5,0
