OCEANSAT-2              
1 35931U 09051A   26159.83571201  .00000095  00000+0  90611-4 0  9990
2 35931  98.2323 147.5202 0014663 261.5866  98.3638 13.99664177878165
WORLDVIEW-2 (WV-2)      
1 35946U 09055A   26159.81346477  .00000110  00000+0  50783-4 0  9997
2 35946  98.4736 233.3783 0003282 238.5546 121.5320 14.37897007874440
SMOS                    
1 36036U 09059A   26159.78054773  .00000263  00000+0  97724-4 0  9998
2 36036  98.4427 347.2388 0001341  90.1279 270.0063 14.39768187872241
YAOGAN-7                
1 36110U 09069A   26159.42323209  .00000520  00000+0  79015-4 0  9995
2 36110  98.0083  45.3441 0025957  68.7505 291.6475 14.78001090888335
TANDEM-X                
1 36605U 10030A   26159.49711266  .00001053  00000+0  53316-4 0  9993
2 36605  97.4452 167.3280 0001832  92.3197 267.8248 15.19149084885320
CARTOSAT-2B             
1 36795U 10035A   26159.81325580  .00000294  00000+0  47241-4 0  9990
2 36795  97.9954 210.4162 0010470 212.5254 147.5313 14.78649618858610
YAOGAN-10               
1 36834U 10038A   26159.87467771  .00001016  00000+0  12446-3 0  9993
2 36834  97.8983 183.3455 0001672  89.2265  34.0397 14.85322791855979
COSMO-SKYMED 4          
1 37216U 10060A   26159.39731509  .00000510  00000+0  70656-4 0  9999
2 37216  97.8890 343.1246 0001413  83.8256 276.3118 14.82162251843269
RESOURCESAT-2           
1 37387U 11015A   26159.78385534  .00000070  00000+0  52300-4 0  9992
2 37387  98.7644 227.2834 0010135 282.6676  77.3368 14.21604716784985
HAIYANG-2A              
1 37781U 11043A   26159.88538635  .00000041  00000+0  88830-4 0  9999
2 37781  99.3399 162.7445 0006286 107.6905 252.4931 13.74549957745511
RASAT                   
1 37791U 11044D   26159.87491892  .00000539  00000+0  10202-3 0  9992
2 37791  98.0567 251.3986 0019573 216.0339 269.6713 14.68159117791966
PLEIADES 1A             
1 38012U 11076F   26159.83923253  .00000370  00000+0  89501-4 0  9993
2 38012  98.1971 235.0537 0001507  97.0979  39.7787 14.58566219770776
ZIYUAN 1-02C (ZY 1-02C) 
1 38038U 11079A   26159.87770624  .00000415  00000+0  15079-3 0  9998
2 38038  98.4068 227.3598 0006059 344.7035 136.7502 14.38208223758019
ARIRANG-3 (KOMPSAT-3)   
1 38338U 12025B   26159.82101833  .00000474  00000+0  10330-3 0  9998
2 38338  98.1167 117.4256 0006322 130.8574 229.3176 14.62199214750120
EXACTVIEW-1 (ADS-1B)    
1 38709U 12039C   26159.81491527  .00000121  00000+0  71459-4 0  9995
2 38709  98.9767 277.0164 0010710 190.2526 169.8435 14.24982217721518
SPOT 6                  
1 38755U 12047A   26159.82846260  .00000260  00000+0  65891-4 0  9991
2 38755  98.2115 227.2350 0001437  92.2001 267.9363 14.58558036731839
PLEIADES 1B             
1 39019U 12068A   26159.84736470  .00000213  00000+0  55582-4 0  9995
2 39019  98.1941 235.0138 0001585  93.8089 266.3292 14.58555213719639
GOKTURK 2               
1 39030U 12073A   26159.80758351  .00000556  00000+0  88586-4 0  9992
2 39030  97.6828 357.6591 0001887  60.3975 299.7423 14.75535316723274
LANDSAT 8               
1 39084U 13008A   26159.78431536  .00000329  00000+0  83114-4 0  9990
2 39084  98.2302 230.0191 0001463  95.9956 264.1409 14.57113352696675
SARAL                   
1 39086U 13009A   26159.80088617  .00000084  00000+0  46836-4 0  9992
2 39086  98.5558 346.4746 0001185 350.2461   9.8700 14.32853884694401
GAOFEN-1                
1 39150U 13018A   26159.04994713  .00000198  00000+0  35695-4 0  9990
2 39150  97.9091 231.3033 0015888 298.8203  61.1412 14.76526544706891
VNREDSAT 1              
1 39160U 13021B   26159.82383733  .00000439  00000+0  90762-4 0  9999
2 39160  97.9082 213.5610 0001667  89.0796 271.0598 14.64847903699061
ARIRANG-5 (KOMPSAT-5)   
1 39227U 13042A   26159.78587465  .00001962  00000+0  14428-3 0  9995
2 39227  97.6218 346.6050 0004228 140.2160 219.9377 15.04559258702597
SKYSAT-A                
1 39418U 13066C   26159.39486828  .00002915  00000+0  16829-3 0  9997
2 39418  97.3819 209.0723 0020908 349.3265  10.7520 15.12928258687153
DUBAISAT-2              
1 39419U 13066D   26159.85451763  .00004483  00000+0  27836-3 0  9991
2 39419  97.4567 150.2174 0012733  66.0013 294.2548 15.10120345685137
GPM-CORE                
1 39574U 14009C   26159.79289926  .00007158  00000+0  15357-3 0  9991
2 39574  64.9730 336.2463 0012083 270.2193  89.7563 15.45451672696519
SENTINEL-1A             
1 39634U 14016A   26159.86464233  .00000111  00000+0  33184-4 0  9991
2 39634  98.1784 167.5190 0001440  82.5073 277.6290 14.59200259648803
KAZEOSAT 1              
1 39731U 14024A   26159.83429969  .00000162  00000+0  62265-4 0  9990
2 39731  98.3200 232.4892 0001476  75.3443 284.7911 14.42076745637357
ALOS-2                  
1 39766U 14029A   26159.54979360  .00001451  00000+0  20114-3 0  9994
2 39766  97.9210 256.8376 0001671  90.6305 269.5098 14.79472067650306
KAZEOSAT 2              
1 40010U 14033A   26159.80997389  .00000411  00000+0  53480-4 0  9991
2 40010  97.5416 359.8644 0008738 358.0790   2.0391 14.85460581647718
